{
    "links": {
        "self": "http://www.neowsapp.com/rest/v1/neo/3989407?api_key=iIulBulltgU6a56xZRHN4H3l9WmuAYTsLGpBGhQ2"
    },
    "id": "3989407",
    "neo_reference_id": "3989407",
    "name": "(2020 CM)",
    "designation": "2020 CM",
    "nasa_jpl_url": "http://ssd.jpl.nasa.gov/sbdb.cgi?sstr=3989407",
    "absolute_magnitude_h": 27.858,
    "estimated_diameter": {
        "kilometers": {
            "estimated_diameter_min": 0.0071277913,
            "estimated_diameter_max": 0.0159382259
        },
        "meters": {
            "estimated_diameter_min": 7.1277913235,
            "estimated_diameter_max": 15.9382259287
        },
        "miles": {
            "estimated_diameter_min": 0.0044290028,
            "estimated_diameter_max": 0.0099035514
        },
        "feet": {
            "estimated_diameter_min": 23.3851428856,
            "estimated_diameter_max": 52.2907691558
        }
    },
    "is_potentially_hazardous_asteroid": false,
    "close_approach_data": [
        {
            "close_approach_date": "2020-01-28",
            "close_approach_date_full": "2020-Jan-28 00:00",
            "epoch_date_close_approach": 1580169600000,
            "relative_velocity": {
                "kilometers_per_second": "10.6731091874",
                "kilometers_per_hour": "38423.1930744913",
                "miles_per_hour": "23874.6779412027"
            },
            "miss_distance": {
                "astronomical": "0.0148576119",
                "lunar": "5.7796110291",
                "kilometers": "2222667.093526653",
                "miles": "1381101.2893996914"
            },
            "orbiting_body": "Earth"
        }
    ],
    "orbital_data": {
        "orbit_id": "1",
        "orbit_determination_date": "2020-02-02 13:42:24",
        "first_observation_date": "2020-02-01",
        "last_observation_date": "2020-02-02",
        "data_arc_in_days": 1,
        "observations_used": 19,
        "orbit_uncertainty": "8",
        "minimum_orbit_intersection": ".00398615",
        "jupiter_tisserand_invariant": "3.134",
        "epoch_osculation": "2458880.5",
        "eccentricity": ".6296332958508706",
        "semi_major_axis": "2.536186852817544",
        "inclination": "3.428915397952049",
        "ascending_node_longitude": "307.7336028871889",
        "orbital_period": "1475.265876864752",
        "perihelion_distance": ".9393191657843868",
        "perihelion_argument": "147.7926090602924",
        "aphelion_distance": "4.133054539850701",
        "perihelion_time": "2458853.143899693157",
        "mean_anomaly": "6.675539822959205",
        "mean_motion": ".2440238099759179",
        "equinox": "J2000",
        "orbit_class": {
            "orbit_class_type": "APO",
            "orbit_class_description": "Near-Earth asteroid orbits which cross the Earth’s orbit similar to that of 1862 Apollo",
            "orbit_class_range": "a (semi-major axis) > 1.0 AU; q (perihelion) < 1.017 AU"
        }
    },
    "is_sentry_object": false
}